KUIPER-00157            
1 65970U 25228Z   25354.00951845  .00025778  00000+0  72593-3 0  9994
2 65970  51.8777 345.5348 0008038  54.0587 306.1143 15.36258132 11538
